[
  {
    "COMMENT": "GENERATED VIA SPACETRACK.ORG API",
    "ORIGINATOR": "18 SPCS",
    "NORAD_CAT_ID": "43437",
    "OBJECT_NAME": "SENTINEL 3B",
    "OBJECT_TYPE": "PAYLOAD",
    "CLASSIFICATION_TYPE": "U",
    "INTLDES": "18039A",
    "EPOCH": "2023-07-24 05:28:43",
    "EPOCH_MICROSECONDS": "99104",
    "MEAN_MOTION": "14.26740301",
    "ECCENTRICITY": "0.0001451",
    "INCLINATION": "98.6259",
    "RA_OF_ASC_NODE": "271.8159",
    "ARG_OF_PERICENTER": "104.3304",
    "MEAN_ANOMALY": "255.8037",
    "EPHEMERIS_TYPE": "0",
    "ELEMENT_SET_NO": "999",
    "REV_AT_EPOCH": "27312",
    "BSTAR": "0.000082407",
    "MEAN_MOTION_DOT": "0.00000156",
    "MEAN_MOTION_DDOT": "0",
    "FILE": "3963756",
    "TLE_LINE0": "0 SENTINEL 3B",
    "TLE_LINE1": "1 43437U 18039A   23205.22827661  .00000156  00000-0  82407-4 0  9995",
    "TLE_LINE2": "2 43437  98.6259 271.8159 0001451 104.3304 255.8037 14.26740301273124",
    "OBJECT_ID": "2018-039A",
    "OBJECT_NUMBER": "43437",
    "SEMIMAJOR_AXIS": "7180.784",
    "PERIOD": "100.929",
    "APOGEE": "803.691",
    "PERIGEE": "801.607",
    "DECAYED": "0"
  },
  {
    "COMMENT": "GENERATED VIA SPACETRACK.ORG API",
    "ORIGINATOR": "18 SPCS",
    "NORAD_CAT_ID": "43437",
    "OBJECT_NAME": "SENTINEL 3B",
    "OBJECT_TYPE": "PAYLOAD",
    "CLASSIFICATION_TYPE": "U",
    "INTLDES": "18039A",
    "EPOCH": "2023-07-25 05:02:31",
    "EPOCH_MICROSECONDS": "973856",
    "MEAN_MOTION": "14.26740794",
    "ECCENTRICITY": "0.0001454",
    "INCLINATION": "98.6258",
    "RA_OF_ASC_NODE": "272.7839",
    "ARG_OF_PERICENTER": "103.296",
    "MEAN_ANOMALY": "256.8383",
    "EPHEMERIS_TYPE": "0",
    "ELEMENT_SET_NO": "999",
    "REV_AT_EPOCH": "27326",
    "BSTAR": "0.000086176",
    "MEAN_MOTION_DOT": "0.00000165",
    "MEAN_MOTION_DDOT": "0",
    "FILE": "3963759",
    "TLE_LINE0": "0 SENTINEL 3B",
    "TLE_LINE1": "1 43437U 18039A   23206.21009229  .00000165  00000-0  86176-4 0  9994",
    "TLE_LINE2": "2 43437  98.6258 272.7839 0001454 103.2960 256.8383 14.26740794273263",
    "OBJECT_ID": "2018-039A",
    "OBJECT_NUMBER": "43437",
    "SEMIMAJOR_AXIS": "7180.783",
    "PERIOD": "100.929",
    "APOGEE": "803.692",
    "PERIGEE": "801.604",
    "DECAYED": "0"
  },
  {
    "COMMENT": "GENERATED VIA SPACETRACK.ORG API",
    "ORIGINATOR": "18 SPCS",
    "NORAD_CAT_ID": "43437",
    "OBJECT_NAME": "SENTINEL 3B",
    "OBJECT_TYPE": "PAYLOAD",
    "CLASSIFICATION_TYPE": "U",
    "INTLDES": "18039A",
    "EPOCH": "2023-07-26 04:36:20",
    "EPOCH_MICROSECONDS": "825280",
    "MEAN_MOTION": "14.2674123",
    "ECCENTRICITY": "0.0001474",
    "INCLINATION": "98.6258",
    "RA_OF_ASC_NODE": "273.7516",
    "ARG_OF_PERICENTER": "103.1909",
    "MEAN_ANOMALY": "256.9436",
    "EPHEMERIS_TYPE": "0",
    "ELEMENT_SET_NO": "999",
    "REV_AT_EPOCH": "27340",
    "BSTAR": "0.000088731",
    "MEAN_MOTION_DOT": "0.00000171",
    "MEAN_MOTION_DDOT": "0",
    "FILE": "3963761",
    "TLE_LINE0": "0 SENTINEL 3B",
    "TLE_LINE1": "1 43437U 18039A   23207.19190770  .00000171  00000-0  88731-4 0  9990",
    "TLE_LINE2": "2 43437  98.6258 273.7516 0001474 103.1909 256.9436 14.26741230273402",
    "OBJECT_ID": "2018-039A",
    "OBJECT_NUMBER": "43437",
    "SEMIMAJOR_AXIS": "7180.781",
    "PERIOD": "100.929",
    "APOGEE": "803.705",
    "PERIGEE": "801.588",
    "DECAYED": "0"
  },
  {
    "COMMENT": "GENERATED VIA SPACETRACK.ORG API",
    "ORIGINATOR": "18 SPCS",
    "NORAD_CAT_ID": "43437",
    "OBJECT_NAME": "SENTINEL 3B",
    "OBJECT_TYPE": "PAYLOAD",
    "CLASSIFICATION_TYPE": "U",
    "INTLDES": "18039A",
    "EPOCH": "2023-07-26 18:04:14",
    "EPOCH_MICROSECONDS": "444544",
    "MEAN_MOTION": "14.26741493",
    "ECCENTRICITY": "0.0001493",
    "INCLINATION": "98.6258",
    "RA_OF_ASC_NODE": "274.3047",
    "ARG_OF_PERICENTER": "102.4714",
    "MEAN_ANOMALY": "257.6634",
    "EPHEMERIS_TYPE": "0",
    "ELEMENT_SET_NO": "999",
    "REV_AT_EPOCH": "27348",
    "BSTAR": "0.000089918",
    "MEAN_MOTION_DOT": "0.00000174",
    "MEAN_MOTION_DDOT": "0",
    "FILE": "3963802",
    "TLE_LINE0": "0 SENTINEL 3B",
    "TLE_LINE1": "1 43437U 18039A   23207.75294496  .00000174  00000-0  89918-4 0  9993",
    "TLE_LINE2": "2 43437  98.6258 274.3047 0001493 102.4714 257.6634 14.26741493273482",
    "OBJECT_ID": "2018-039A",
    "OBJECT_NUMBER": "43437",
    "SEMIMAJOR_AXIS": "7180.780",
    "PERIOD": "100.929",
    "APOGEE": "803.718",
    "PERIGEE": "801.573",
    "DECAYED": "0"
  },
  {
    "COMMENT": "GENERATED VIA SPACETRACK.ORG API",
    "ORIGINATOR": "18 SPCS",
    "NORAD_CAT_ID": "43437",
    "OBJECT_NAME": "SENTINEL 3B",
    "OBJECT_TYPE": "PAYLOAD",
    "CLASSIFICATION_TYPE": "U",
    "INTLDES": "18039A",
    "EPOCH": "2023-07-26 21:26:12",
    "EPOCH_MICROSECONDS": "850656",
    "MEAN_MOTION": "14.26741506",
    "ECCENTRICITY": "0.0001492",
    "INCLINATION": "98.6258",
    "RA_OF_ASC_NODE": "274.443",
    "ARG_OF_PERICENTER": "101.8972",
    "MEAN_ANOMALY": "258.2376",
    "EPHEMERIS_TYPE": "0",
    "ELEMENT_SET_NO": "999",
    "REV_AT_EPOCH": "27350",
    "BSTAR": "0.000087768",
    "MEAN_MOTION_DOT": "0.00000169",
    "MEAN_MOTION_DDOT": "0",
    "FILE": "3963989",
    "TLE_LINE0": "0 SENTINEL 3B",
    "TLE_LINE1": "1 43437U 18039A   23207.89320429  .00000169  00000-0  87768-4 0  9999",
    "TLE_LINE2": "2 43437  98.6258 274.4430 0001492 101.8972 258.2376 14.26741506273505",
    "OBJECT_ID": "2018-039A",
    "OBJECT_NUMBER": "43437",
    "SEMIMAJOR_AXIS": "7180.780",
    "PERIOD": "100.929",
    "APOGEE": "803.717",
    "PERIGEE": "801.574",
    "DECAYED": "0"
  },
  {
    "COMMENT": "GENERATED VIA SPACETRACK.ORG API",
    "ORIGINATOR": "18 SPCS",
    "NORAD_CAT_ID": "43437",
    "OBJECT_NAME": "SENTINEL 3B",
    "OBJECT_TYPE": "PAYLOAD",
    "CLASSIFICATION_TYPE": "U",
    "INTLDES": "18039A",
    "EPOCH": "2023-07-27 05:51:08",
    "EPOCH_MICROSECONDS": "859456",
    "MEAN_MOTION": "14.26741626",
    "ECCENTRICITY": "0.0001494",
    "INCLINATION": "98.6257",
    "RA_OF_ASC_NODE": "274.7886",
    "ARG_OF_PERICENTER": "101.6929",
    "MEAN_ANOMALY": "258.4419",
    "EPHEMERIS_TYPE": "0",
    "ELEMENT_SET_NO": "999",
    "REV_AT_EPOCH": "27355",
    "BSTAR": "0.000085002",
    "MEAN_MOTION_DOT": "0.00000162",
    "MEAN_MOTION_DDOT": "0",
    "FILE": "3964647",
    "TLE_LINE0": "0 SENTINEL 3B",
    "TLE_LINE1": "1 43437U 18039A   23208.24385254  .00000162  00000-0  85002-4 0  9998",
    "TLE_LINE2": "2 43437  98.6257 274.7886 0001494 101.6929 258.4419 14.26741626273552",
    "OBJECT_ID": "2018-039A",
    "OBJECT_NUMBER": "43437",
    "SEMIMAJOR_AXIS": "7180.780",
    "PERIOD": "100.929",
    "APOGEE": "803.718",
    "PERIGEE": "801.572",
    "DECAYED": "0"
  },
  {
    "COMMENT": "GENERATED VIA SPACETRACK.ORG API",
    "ORIGINATOR": "18 SPCS",
    "NORAD_CAT_ID": "43437",
    "OBJECT_NAME": "SENTINEL 3B",
    "OBJECT_TYPE": "PAYLOAD",
    "CLASSIFICATION_TYPE": "U",
    "INTLDES": "18039A",
    "EPOCH": "2023-07-27 15:57:04",
    "EPOCH_MICROSECONDS": "63104",
    "MEAN_MOTION": "14.2674174",
    "ECCENTRICITY": "0.0001499",
    "INCLINATION": "98.6257",
    "RA_OF_ASC_NODE": "275.2034",
    "ARG_OF_PERICENTER": "101.5691",
    "MEAN_ANOMALY": "258.5658",
    "EPHEMERIS_TYPE": "0",
    "ELEMENT_SET_NO": "999",
    "REV_AT_EPOCH": "27361",
    "BSTAR": "0.000078975",
    "MEAN_MOTION_DOT": "0.00000147",
    "MEAN_MOTION_DDOT": "0",
    "FILE": "3964919",
    "TLE_LINE0": "0 SENTINEL 3B",
    "TLE_LINE1": "1 43437U 18039A   23208.66463036  .00000147  00000-0  78975-4 0  9993",
    "TLE_LINE2": "2 43437  98.6257 275.2034 0001499 101.5691 258.5658 14.26741740273613",
    "OBJECT_ID": "2018-039A",
    "OBJECT_NUMBER": "43437",
    "SEMIMAJOR_AXIS": "7180.780",
    "PERIOD": "100.929",
    "APOGEE": "803.721",
    "PERIGEE": "801.568",
    "DECAYED": "0"
  },
  {
    "COMMENT": "GENERATED VIA SPACETRACK.ORG API",
    "ORIGINATOR": "18 SPCS",
    "NORAD_CAT_ID": "43437",
    "OBJECT_NAME": "SENTINEL 3B",
    "OBJECT_TYPE": "PAYLOAD",
    "CLASSIFICATION_TYPE": "U",
    "INTLDES": "18039A",
    "EPOCH": "2023-07-27 22:41:01",
    "EPOCH_MICROSECONDS": "192416",
    "MEAN_MOTION": "14.26733984",
    "ECCENTRICITY": "0.000149",
    "INCLINATION": "98.6259",
    "RA_OF_ASC_NODE": "275.4802",
    "ARG_OF_PERICENTER": "100.4568",
    "MEAN_ANOMALY": "259.6781",
    "EPHEMERIS_TYPE": "0",
    "ELEMENT_SET_NO": "999",
    "REV_AT_EPOCH": "27365",
    "BSTAR": "0.00007871",
    "MEAN_MOTION_DOT": "0.00000147",
    "MEAN_MOTION_DDOT": "0",
    "FILE": "3964984",
    "TLE_LINE0": "0 SENTINEL 3B",
    "TLE_LINE1": "1 43437U 18039A   23208.94515269  .00000147  00000-0  78710-4 0  9997",
    "TLE_LINE2": "2 43437  98.6259 275.4802 0001490 100.4568 259.6781 14.26733984273656",
    "OBJECT_ID": "2018-039A",
    "OBJECT_NUMBER": "43437",
    "SEMIMAJOR_AXIS": "7180.806",
    "PERIOD": "100.930",
    "APOGEE": "803.741",
    "PERIGEE": "801.601",
    "DECAYED": "0"
  }
]